{
  "type": "FeatureCollection",
  "name": "forest_reserves_placeholder",
  "description": "Placeholder reserve boundaries pending official Ghana Forestry Commission shapefiles. Replace with real data before scoring is presented as authoritative.",
  "features": [
    {
      "type": "Feature",
      "properties": { "name": "Pra-Suhien area reserve (approx.)" },
      "geometry": {
        "type": "Polygon",
        "coordinates": [[
          [-1.72, 5.20],
          [-1.58, 5.20],
          [-1.58, 5.32],
          [-1.72, 5.32],
          [-1.72, 5.20]
        ]]
      }
    },
    {
      "type": "Feature",
      "properties": { "name": "Upper Pra area reserve (approx.)" },
      "geometry": {
        "type": "Polygon",
        "coordinates": [[
          [-1.50, 5.90],
          [-1.36, 5.90],
          [-1.36, 6.02],
          [-1.50, 6.02],
          [-1.50, 5.90]
        ]]
      }
    }
  ]
}
