{
  "type": "FeatureCollection",
  "name": "pra_river_simplified",
  "features": [
    {
      "type": "Feature",
      "properties": { "name": "Pra River (simplified main stem)" },
      "geometry": {
        "type": "LineString",
        "coordinates": [
          [-1.34, 6.12],
          [-1.39, 5.98],
          [-1.42, 5.88],
          [-1.47, 5.79],
          [-1.51, 5.70],
          [-1.55, 5.64],
          [-1.57, 5.55],
          [-1.60, 5.45],
          [-1.63, 5.35],
          [-1.66, 5.25],
          [-1.66, 5.16],
          [-1.62, 5.08],
          [-1.63, 5.02]
        ]
      }
    },
    {
      "type": "Feature",
      "properties": { "name": "Kyekyewere tributary (simplified)" },
      "geometry": {
        "type": "LineString",
        "coordinates": [
          [-1.44, 5.83],
          [-1.47, 5.78],
          [-1.51, 5.72],
          [-1.55, 5.64]
        ]
      }
    }
  ]
}
